[
  {
    "OBJECT_NAME": "STARLINK-2637",
    "OBJECT_ID": "21038D",
    "EPOCH": "2025-11-11T00:42:05.835744",
    "MEAN_MOTION": 15.06405615,
    "ECCENTRICITY": 0.0001444,
    "INCLINATION": 53.0527,
    "RA_OF_ASC_NODE": 174.3075,
    "ARG_OF_PERICENTER": 88.9179,
    "MEAN_ANOMALY": 271.1975,
    "EPHEMERIS_TYPE": 0,
    "CLASSIFICATION_TYPE": "U",
    "NORAD_CAT_ID": 48356,
    "ELEMENT_SET_NO": 999,
    "REV_AT_EPOCH": 24914,
    "BSTAR": 0.00045620000000000003,
    "MEAN_MOTION_DOT": 6.521e-05,
    "MEAN_MOTION_DDOT": 0.0,
    "TLE_LINE1": "1 48356U 21038D   25315.02923421  .00006521  00000+0  45620-3 0  9992",
    "TLE_LINE2": "2 48356  53.0527 174.3075 0001444  88.9179 271.1975 15.06405615249147",
    "COMMENT": "Grouped by shell and plane from TLE"
  },
  {
    "OBJECT_NAME": "STARLINK-2636",
    "OBJECT_ID": "21038E",
    "EPOCH": "2025-11-11T03:10:46.014528",
    "MEAN_MOTION": 15.06433328,
    "ECCENTRICITY": 0.00014,
    "INCLINATION": 53.0524,
    "RA_OF_ASC_NODE": 174.2673,
    "ARG_OF_PERICENTER": 87.9159,
    "MEAN_ANOMALY": 272.1991,
    "EPHEMERIS_TYPE": 0,
    "CLASSIFICATION_TYPE": "U",
    "NORAD_CAT_ID": 48357,
    "ELEMENT_SET_NO": 999,
    "REV_AT_EPOCH": 24915,
    "BSTAR": 0.00091645,
    "MEAN_MOTION_DOT": 0.00013407,
    "MEAN_MOTION_DDOT": 0.0,
    "TLE_LINE1": "1 48357U 21038E   25315.13247702  .00013407  00000+0  91645-3 0  9995",
    "TLE_LINE2": "2 48357  53.0524 174.2673 0001400  87.9159 272.1991 15.06433328249159",
    "COMMENT": "Grouped by shell and plane from TLE"
  },
  {
    "OBJECT_NAME": "STARLINK-2624",
    "OBJECT_ID": "21038F",
    "EPOCH": "2025-11-11T00:31:26.664096",
    "MEAN_MOTION": 15.06422648,
    "ECCENTRICITY": 0.0003125,
    "INCLINATION": 53.0526,
    "RA_OF_ASC_NODE": 174.3403,
    "ARG_OF_PERICENTER": 70.0983,
    "MEAN_ANOMALY": 290.0343,
    "EPHEMERIS_TYPE": 0,
    "CLASSIFICATION_TYPE": "U",
    "NORAD_CAT_ID": 48358,
    "ELEMENT_SET_NO": 999,
    "REV_AT_EPOCH": 24913,
    "BSTAR": 0.00015206,
    "MEAN_MOTION_DOT": 1.985e-05,
    "MEAN_MOTION_DDOT": 0.0,
    "TLE_LINE1": "1 48358U 21038F   25315.02183639  .00001985  00000+0  15206-3 0  9999",
    "TLE_LINE2": "2 48358  53.0526 174.3403 0003125  70.0983 290.0343 15.06422648249139",
    "COMMENT": "Grouped by shell and plane from TLE"
  },
  {
    "OBJECT_NAME": "STARLINK-2628",
    "OBJECT_ID": "21038G",
    "EPOCH": "2025-11-11T00:26:07.833408",
    "MEAN_MOTION": 15.06449758,
    "ECCENTRICITY": 2.78e-05,
    "INCLINATION": 53.0526,
    "RA_OF_ASC_NODE": 174.3566,
    "ARG_OF_PERICENTER": 191.0042,
    "MEAN_ANOMALY": 169.0941,
    "EPHEMERIS_TYPE": 0,
    "CLASSIFICATION_TYPE": "U",
    "NORAD_CAT_ID": 48359,
    "ELEMENT_SET_NO": 999,
    "REV_AT_EPOCH": 24913,
    "BSTAR": 0.0010170000000000001,
    "MEAN_MOTION_DOT": 0.00014919,
    "MEAN_MOTION_DDOT": 0.0,
    "TLE_LINE1": "1 48359U 21038G   25315.01814622  .00014919  00000+0  10170-2 0  9997",
    "TLE_LINE2": "2 48359  53.0526 174.3566 0000278 191.0042 169.0941 15.06449758249136",
    "COMMENT": "Grouped by shell and plane from TLE"
  },
  {
    "OBJECT_NAME": "STARLINK-2622",
    "OBJECT_ID": "21038H",
    "EPOCH": "2025-11-11T00:20:52.249632",
    "MEAN_MOTION": 15.06395072,
    "ECCENTRICITY": 0.0001339,
    "INCLINATION": 53.0531,
    "RA_OF_ASC_NODE": 174.3677,
    "ARG_OF_PERICENTER": 93.6563,
    "MEAN_ANOMALY": 266.4579,
    "EPHEMERIS_TYPE": 0,
    "CLASSIFICATION_TYPE": "U",
    "NORAD_CAT_ID": 48360,
    "ELEMENT_SET_NO": 999,
    "REV_AT_EPOCH": 24913,
    "BSTAR": 0.00020632000000000002,
    "MEAN_MOTION_DOT": 2.793e-05,
    "MEAN_MOTION_DDOT": 0.0,
    "TLE_LINE1": "1 48360U 21038H   25315.01449363  .00002793  00000+0  20632-3 0  9997",
    "TLE_LINE2": "2 48360  53.0531 174.3677 0001339  93.6563 266.4579 15.06395072249139",
    "COMMENT": "Grouped by shell and plane from TLE"
  },
  {
    "OBJECT_NAME": "STARLINK-2591",
    "OBJECT_ID": "21038J",
    "EPOCH": "2025-11-11T00:15:33.908832",
    "MEAN_MOTION": 15.06399817,
    "ECCENTRICITY": 0.0001189,
    "INCLINATION": 53.0522,
    "RA_OF_ASC_NODE": 174.385,
    "ARG_OF_PERICENTER": 85.7915,
    "MEAN_ANOMALY": 274.321,
    "EPHEMERIS_TYPE": 0,
    "CLASSIFICATION_TYPE": "U",
    "NORAD_CAT_ID": 48361,
    "ELEMENT_SET_NO": 999,
    "REV_AT_EPOCH": 24913,
    "BSTAR": 0.00039001000000000004,
    "MEAN_MOTION_DOT": 5.532e-05,
    "MEAN_MOTION_DDOT": 0.0,
    "TLE_LINE1": "1 48361U 21038J   25315.01080913  .00005532  00000+0  39001-3 0  9994",
    "TLE_LINE2": "2 48361  53.0522 174.3850 0001189  85.7915 274.3210 15.06399817249130",
    "COMMENT": "Grouped by shell and plane from TLE"
  },
  {
    "OBJECT_NAME": "STARLINK-2578",
    "OBJECT_ID": "21038K",
    "EPOCH": "2025-11-11T01:03:20.947680",
    "MEAN_MOTION": 15.06394963,
    "ECCENTRICITY": 0.0001475,
    "INCLINATION": 53.0531,
    "RA_OF_ASC_NODE": 174.3261,
    "ARG_OF_PERICENTER": 85.8365,
    "MEAN_ANOMALY": 274.2792,
    "EPHEMERIS_TYPE": 0,
    "CLASSIFICATION_TYPE": "U",
    "NORAD_CAT_ID": 48362,
    "ELEMENT_SET_NO": 999,
    "REV_AT_EPOCH": 24914,
    "BSTAR": 0.0001932,
    "MEAN_MOTION_DOT": 2.597e-05,
    "MEAN_MOTION_DDOT": 0.0,
    "TLE_LINE1": "1 48362U 21038K   25315.04399245  .00002597  00000+0  19320-3 0  9999",
    "TLE_LINE2": "2 48362  53.0531 174.3261 0001475  85.8365 274.2792 15.06394963249147",
    "COMMENT": "Grouped by shell and plane from TLE"
  },
  {
    "OBJECT_NAME": "STARLINK-3556",
    "OBJECT_ID": "22022AB",
    "EPOCH": "2025-11-11T00:28:33.740544",
    "MEAN_MOTION": 15.08842352,
    "ECCENTRICITY": 0.0001466,
    "INCLINATION": 53.2154,
    "RA_OF_ASC_NODE": 171.8511,
    "ARG_OF_PERICENTER": 84.5861,
    "MEAN_ANOMALY": 275.5299,
    "EPHEMERIS_TYPE": 0,
    "CLASSIFICATION_TYPE": "U",
    "NORAD_CAT_ID": 51877,
    "ELEMENT_SET_NO": 999,
    "REV_AT_EPOCH": 20533,
    "BSTAR": 6.8606e-05,
    "MEAN_MOTION_DOT": 8.04e-06,
    "MEAN_MOTION_DDOT": 0.0,
    "TLE_LINE1": "1 51877U 22022AB  25315.01983496  .00000804  00000+0  68606-4 0  9993",
    "TLE_LINE2": "2 51877  53.2154 171.8511 0001466  84.5861 275.5299 15.08842352205333",
    "COMMENT": "Grouped by shell and plane from TLE"
  },
  {
    "OBJECT_NAME": "STARLINK-3572",
    "OBJECT_ID": "22022AD",
    "EPOCH": "2025-11-11T00:17:58.175232",
    "MEAN_MOTION": 15.08844585,
    "ECCENTRICITY": 0.0001504,
    "INCLINATION": 53.2156,
    "RA_OF_ASC_NODE": 171.8823,
    "ARG_OF_PERICENTER": 93.4155,
    "MEAN_ANOMALY": 266.701,
    "EPHEMERIS_TYPE": 0,
    "CLASSIFICATION_TYPE": "U",
    "NORAD_CAT_ID": 51879,
    "ELEMENT_SET_NO": 999,
    "REV_AT_EPOCH": 20533,
    "BSTAR": 0.00011602,
    "MEAN_MOTION_DOT": 1.559e-05,
    "MEAN_MOTION_DDOT": 0.0,
    "TLE_LINE1": "1 51879U 22022AD  25315.01247888  .00001559  00000+0  11602-3 0  9994",
    "TLE_LINE2": "2 51879  53.2156 171.8823 0001504  93.4155 266.7010 15.08844585205334",
    "COMMENT": "Grouped by shell and plane from TLE"
  },
  {
    "OBJECT_NAME": "STARLINK-3504",
    "OBJECT_ID": "22022AF",
    "EPOCH": "2025-11-11T00:07:23.381472",
    "MEAN_MOTION": 15.0885516,
    "ECCENTRICITY": 0.0001609,
    "INCLINATION": 53.2154,
    "RA_OF_ASC_NODE": 171.9164,
    "ARG_OF_PERICENTER": 100.4297,
    "MEAN_ANOMALY": 259.6877,
    "EPHEMERIS_TYPE": 0,
    "CLASSIFICATION_TYPE": "U",
    "NORAD_CAT_ID": 51881,
    "ELEMENT_SET_NO": 999,
    "REV_AT_EPOCH": 20538,
    "BSTAR": 0.0,
    "MEAN_MOTION_DOT": -4.745e-05,
    "MEAN_MOTION_DDOT": 0.0,
    "TLE_LINE1": "1 51881U 22022AF  25315.00513173 -.00004745  00000+0 -28011-3 0  9993",
    "TLE_LINE2": "2 51881  53.2154 171.9164 0001609 100.4297 259.6877 15.08855160205384",
    "COMMENT": "Grouped by shell and plane from TLE"
  },
  {
    "OBJECT_NAME": "STARLINK-3570",
    "OBJECT_ID": "22022AG",
    "EPOCH": "2025-11-11T00:24:38.160576",
    "MEAN_MOTION": 15.08842198,
    "ECCENTRICITY": 0.0001084,
    "INCLINATION": 53.2163,
    "RA_OF_ASC_NODE": 171.8721,
    "ARG_OF_PERICENTER": 82.4598,
    "MEAN_ANOMALY": 277.6517,
    "EPHEMERIS_TYPE": 0,
    "CLASSIFICATION_TYPE": "U",
    "NORAD_CAT_ID": 51882,
    "ELEMENT_SET_NO": 999,
    "REV_AT_EPOCH": 20538,
    "BSTAR": 0.0,
    "MEAN_MOTION_DOT": -3.64e-05,
    "MEAN_MOTION_DDOT": 0.0,
    "TLE_LINE1": "1 51882U 22022AG  25315.01710834 -.00003640  00000+0 -21075-3 0  9994",
    "TLE_LINE2": "2 51882  53.2163 171.8721 0001084  82.4598 277.6517 15.08842198205381",
    "COMMENT": "Grouped by shell and plane from TLE"
  },
  {
    "OBJECT_NAME": "STARLINK-3576",
    "OBJECT_ID": "22022AH",
    "EPOCH": "2025-11-10T22:47:54.882528",
    "MEAN_MOTION": 15.08842772,
    "ECCENTRICITY": 0.000153,
    "INCLINATION": 53.2158,
    "RA_OF_ASC_NODE": 172.3466,
    "ARG_OF_PERICENTER": 96.0332,
    "MEAN_ANOMALY": 264.0834,
    "EPHEMERIS_TYPE": 0,
    "CLASSIFICATION_TYPE": "U",
    "NORAD_CAT_ID": 51883,
    "ELEMENT_SET_NO": 999,
    "REV_AT_EPOCH": 20531,
    "BSTAR": 0.00011945,
    "MEAN_MOTION_DOT": 1.614e-05,
    "MEAN_MOTION_DDOT": 0.0,
    "TLE_LINE1": "1 51883U 22022AH  25314.94994077  .00001614  00000+0  11945-3 0  9991",
    "TLE_LINE2": "2 51883  53.2158 172.3466 0001530  96.0332 264.0834 15.08842772205314",
    "COMMENT": "Grouped by shell and plane from TLE"
  },
  {
    "OBJECT_NAME": "STARLINK-3577",
    "OBJECT_ID": "22022AJ",
    "EPOCH": "2025-11-11T00:12:41.423328",
    "MEAN_MOTION": 15.08827451,
    "ECCENTRICITY": 0.0001111,
    "INCLINATION": 53.2158,
    "RA_OF_ASC_NODE": 171.9004,
    "ARG_OF_PERICENTER": 90.9224,
    "MEAN_ANOMALY": 269.1896,
    "EPHEMERIS_TYPE": 0,
    "CLASSIFICATION_TYPE": "U",
    "NORAD_CAT_ID": 51884,
    "ELEMENT_SET_NO": 999,
    "REV_AT_EPOCH": 20541,
    "BSTAR": 0.00027432,
    "MEAN_MOTION_DOT": 4.079e-05,
    "MEAN_MOTION_DDOT": 0.0,
    "TLE_LINE1": "1 51884U 22022AJ  25315.00881277  .00004079  00000+0  27432-3 0  9993",
    "TLE_LINE2": "2 51884  53.2158 171.9004 0001111  90.9224 269.1896 15.08827451205418",
    "COMMENT": "Grouped by shell and plane from TLE"
  }
]